NORAD_CAT_ID,OBJECT_NAME,OBJECT_TYPE,EPOCH,MEAN_MOTION,ECCENTRICITY,INCLINATION,RA_OF_ASC_NODE,ARG_OF_PERICENTER,MEAN_ANOMALY,BSTAR,MEAN_MOTION_DOT,MEAN_MOTION_DDOT,TLE_LINE0,TLE_LINE1,TLE_LINE2,SEMIMAJOR_AXIS,PERIOD,APOGEE,PERIGEE,DECAYED
53863.0,STARLINK-4788,PAYLOAD,2022-11-07 08:00:01,15.73164864,0.0003609,53.2157,14.8331,4.3302,291.0564,0.00031576,0.0004386999999999,0.0,0 STARLINK-4788,1 53863U 22114AX  22311.33334491  .00043870  00000-0  31576-3 0  9991,2 53863  53.2157  14.8331 0003609   4.3302 291.0564 15.73164864  8336,6727.995,91.535,352.288,347.432,0.0
53863.0,STARLINK-4788,PAYLOAD,2022-11-07 22:00:00,15.73267041,0.0003713,53.216,11.946,4.2108,356.7803,-0.00052828,-0.00074357,0.0,0 STARLINK-4788,1 53863U 22114AX  22311.91667824 -.00074357  00000-0 -52828-3 0  9993,2 53863  53.2160  11.9460 0003713   4.2108 356.7803 15.73267041  1317,6727.704000000002,91.529,352.06699999999995,347.071,0.0
53863.0,STARLINK-4788,PAYLOAD,2022-11-08 00:00:02,15.73271131,0.0003707,53.2159,11.5331,4.8024,108.5336,-0.00015425,-0.0002229,0.0,0 STARLINK-4788,1 53863U 22114AX  22312.00002315 -.00022290  00000-0 -15425-3 0  9993,2 53863  53.2159  11.5331 0003707   4.8024 108.5336 15.73271131  8444,6727.691999999999,91.529,352.051,347.06300000000016,0.0
53863.0,STARLINK-4788,PAYLOAD,2022-11-08 10:00:01,15.73248105,0.0003993,53.2157,9.4723,8.7887,305.8317,0.00060416,0.00085237,0.0,0 STARLINK-4788,1 53863U 22114AX  22312.41668981  .00085237  00000-0  60416-3 0  9993,2 53863  53.2157   9.4723 0003993   8.7887 305.8317 15.73248105  8503,6727.7580000000025,91.53,352.309,346.93699999999984,0.0
53863.0,STARLINK-4788,PAYLOAD,2022-11-08 14:00:01,15.7326486,0.0004053999999999,53.2158,8.6483,7.9886,171.0663,0.00064167,0.00090694,0.0,0 STARLINK-4788,1 53863U 22114AX  22312.58334491  .00090694  00000-0  64167-3 0  9997,2 53863  53.2158   8.6483 0004054   7.9886 171.0663 15.73264860  1301,6727.71,91.529,352.30300000000005,346.848,0.0
53863.0,STARLINK-4788,PAYLOAD,2022-11-08 22:00:00,15.73330707,0.0003857,53.2154,6.9966,6.4079,261.7005,-0.00063176,-0.00088895,0.0,0 STARLINK-4788,1 53863U 22114AX  22312.91667824 -.00088895  00000-0 -63176-3 0  9994,2 53863  53.2154   6.9966 0003857   6.4079 261.7005 15.73330707  8580,6727.523,91.526,351.982,346.793,0.0
53863.0,STARLINK-4788,PAYLOAD,2022-11-09 06:00:00,15.73285068,0.0003788,53.2155,5.3472,7.7785,349.3724,-0.001673,-0.00230086,0.0,0 STARLINK-4788,1 53863U 22114AX  22313.25001157 -.00230086  00000-0 -16730-2 0  9997,2 53863  53.2155   5.3472 0003788   7.7785 349.3724 15.73285068  8633,6727.653,91.528,352.066,346.969,0.0
53863.0,STARLINK-4788,PAYLOAD,2022-11-09 14:00:01,15.73141934,0.0004187,53.2153,3.6991,355.7306,90.4383,-0.00048526,-0.00068049,0.0,0 STARLINK-4788,1 53863U 22114AX  22313.58334491 -.00068049  00000-0 -48526-3 0  9990,2 53863  53.2153   3.6991 0004187 355.7306  90.4383 15.73141934  1302,6728.061,91.537,352.74300000000005,347.1090000000001,0.0
53863.0,STARLINK-4788,PAYLOAD,2022-11-09 22:00:01,15.73058431,0.0003982,53.2156,2.0476,353.2332,181.8392,0.00049774,0.00069412,0.0,0 STARLINK-4788,1 53863U 22114AX  22313.91668981  .00069412  00000-0  49774-3 0  9990,2 53863  53.2156   2.0476 0003982 353.2332 181.8392 15.73058431  8749,6728.299,91.541,352.843,347.485,0.0
53863.0,STARLINK-4788,PAYLOAD,2022-11-10 14:00:01,15.73139754,0.0004284,53.2153,358.7508,356.8812,355.7505,0.00053677,0.00075223,0.0,0 STARLINK-4788,1 53863U 22114AX  22314.58334491  .00075223  00000-0  53677-3 0  9994,2 53863  53.2153 358.7508 0004284 356.8812 355.7505 15.73139754  1302,6728.066999999999,91.537,352.814,347.05,0.0
53863.0,STARLINK-4788,PAYLOAD,2022-11-10 22:00:00,15.73149966,0.0003953,53.2152,357.0993,356.0073,85.5277,0.00016888,0.00023101,0.0,0 STARLINK-4788,1 53863U 22114AX  22314.91667824  .00023101  00000-0  16888-3 0  9991,2 53863  53.2152 357.0993 0003953 356.0073  85.5277 15.73149966  8907,6728.038000000001,91.536,352.56199999999984,347.24300000000005,0.0
53863.0,STARLINK-4788,PAYLOAD,2022-11-11 14:00:01,15.73132844,0.0004264,53.215,353.8024,1.0476,258.2395,0.00080891,0.00114171,0.0,0 STARLINK-4788,1 53863U 22114AX  22315.58334491  .00114171  00000-0  80891-3 0  9999,2 53863  53.2150 353.8024 0004264   1.0476 258.2395 15.73132844  1308,6728.087,91.537,352.821,347.083,0.0
53863.0,STARLINK-4788,PAYLOAD,2022-11-11 16:00:01,15.73170779,0.0004262,53.2149,353.3895,1.5956,9.9677,0.00045839,0.00064148,0.0,0 STARLINK-4788,1 53863U 22114AX  22315.66668981  .00064148  00000-0  45839-3 0  9993,2 53863  53.2149 353.3895 0004262   1.5956   9.9677 15.73170779  9012,6727.978,91.535,352.711,346.976,0.0
53863.0,STARLINK-4788,PAYLOAD,2022-11-11 22:00:00,15.73209039,0.0004074,53.2154,352.1506,3.1922,345.0021,0.00041456,0.00058005,0.0,0 STARLINK-4788,1 53863U 22114AX  22315.91667824  .00058005  00000-0  41456-3 0  9992,2 53863  53.2154 352.1506 0004074   3.1922 345.0021 15.73209039  1309,6727.869000000002,91.533,352.475,346.99300000000005,0.0
53863.0,STARLINK-4788,PAYLOAD,2022-11-12 14:00:01,15.73316422,0.0004229,53.2152,348.8532,2.4814,163.6887,-0.00056989,-0.00080291,0.0,0 STARLINK-4788,1 53863U 22114AX  22316.58334491 -.00080291  00000-0 -56989-3 0  9998,2 53863  53.2152 348.8532 0004229   2.4814 163.6887 15.73316422  1301,6727.563,91.526,352.273,346.583,0.0
53863.0,STARLINK-4788,PAYLOAD,2022-11-12 22:00:00,15.73253441,0.0003917,53.2152,347.2013,2.9253,252.292,-0.00045981,-0.00064839,0.0,0 STARLINK-4788,1 53863U 22114AX  22316.91667824 -.00064839  00000-0 -45981-3 0  9994,2 53863  53.2152 347.2013 0003917   2.9253 252.2920 15.73253441  9215,6727.743,91.53,352.24300000000005,346.973,0.0
53863.0,STARLINK-4788,PAYLOAD,2022-11-13 14:00:01,15.73107494,0.0004224,53.215,343.9042,6.4962,66.5668,0.00056184,0.00078688,0.0,0 STARLINK-4788,1 53863U 22114AX  22317.58334491  .00078688  00000-0  56184-3 0  9991,2 53863  53.2150 343.9042 0004224   6.4962  66.5668 15.73107494  9318,6728.159000000002,91.539,352.866,347.182,0.0
53863.0,STARLINK-4788,PAYLOAD,2022-11-13 22:00:00,15.73126412,0.000398,53.2153,342.2527,5.4637,156.4633,0.00027068,0.00037429,0.0,0 STARLINK-4788,1 53863U 22114AX  22317.91667824  .00037429  00000-0  27068-3 0  9994,2 53863  53.2153 342.2527 0003980   5.4637 156.4633 15.73126412  1300,6728.105,91.537,352.648,347.292,0.0
53863.0,STARLINK-4788,PAYLOAD,2022-11-14 14:00:01,15.73187372,0.0004355,53.2155,338.9566,6.9876,332.6882,0.00062264,0.00087667,0.0,0 STARLINK-4788,1 53863U 22114AX  22318.58334491  .00087667  00000-0  62264-3 0  9995,2 53863  53.2155 338.9566 0004355   6.9876 332.6882 15.73187372  9477,6727.931,91.534,352.726,346.866,0.0
53863.0,STARLINK-4788,PAYLOAD,2022-11-14 22:00:00,15.732424599999998,0.0003991,53.2155,337.3045,6.4121,62.224,-7.8206e-05,-0.00011611,0.0,0 STARLINK-4788,1 53863U 22114AX  22318.91667824 -.00011611  00000-0 -78206-4 0  9993,2 53863  53.2155 337.3045 0003991   6.4121  62.2240 15.73242460  1303,6727.774,91.531,352.324,346.954,0.0
53863.0,STARLINK-4788,PAYLOAD,2022-11-15 02:00:01,15.73236327,0.0003989,53.2155,336.4797,6.1816,286.9286,-0.00019768,-0.00028331,0.0,0 STARLINK-4788,1 53863U 22114AX  22319.08334491 -.00028331  00000-0 -19768-3 0  9997,2 53863  53.2155 336.4797 0003989   6.1816 286.9286 15.73236327  9557,6727.792,91.531,352.34,346.973,0.0
53863.0,STARLINK-4788,PAYLOAD,2022-11-15 14:00:01,15.73199909,0.0004288,53.215,334.0071,2.6155,243.9142,0.00032084,0.00044664,0.0,0 STARLINK-4788,1 53863U 22114AX  22319.58334491  .00044664  00000-0  32084-3 0  9993,2 53863  53.2150 334.0071 0004288   2.6155 243.9142 15.73199909  1304,6727.895,91.533,352.645,346.876,0.0
53863.0,STARLINK-4788,PAYLOAD,2022-11-15 22:00:00,15.73188833,0.000403,53.2155,332.3558,2.798,332.6938,0.00039016,0.00054483,0.0,0 STARLINK-4788,1 53863U 22114AX  22319.91667824  .00054483  00000-0  39016-3 0  9991,2 53863  53.2155 332.3558 0004030   2.7980 332.6938 15.73188833  1305,6727.927,91.534,352.50300000000016,347.081,0.0
53863.0,STARLINK-4788,PAYLOAD,2022-11-16 00:00:00,15.73197011,0.0003993,53.2158,331.9433,3.3592,84.3648,0.0003418,0.0004763,0.0,0 STARLINK-4788,1 53863U 22114AX  22320.00001157  .00047630  00000-0  34180-3 0  9997,2 53863  53.2158 331.9433 0003993   3.3592  84.3648 15.73197011  9707,6727.904,91.533,352.455,347.082,0.0
53863.0,STARLINK-4788,PAYLOAD,2022-11-16 14:00:01,15.73110981,0.0004141,53.2167,329.0609,8.5312,144.9023,0.0009908,0.00140285,0.0,0 STARLINK-4788,1 53863U 22114AX  22320.58335648  .00140285  00000-0  99080-3 0  9995,2 53863  53.2167 329.0609 0004141   8.5312 144.9023 15.73110981  9793,6728.149,91.538,352.8,347.228,0.0
53863.0,STARLINK-4788,PAYLOAD,2022-11-16 20:00:01,15.73202202,0.0003953,53.2175,327.8229,10.9048,119.114,3.1951999999999995e-05,3.864e-05,0.0,0 STARLINK-4788,1 53863U 22114AX  22320.83334491  .00003864  00000-0  31952-4 0  9994,2 53863  53.2175 327.8229 0003953  10.9048 119.1140 15.73202202  9836,6727.889,91.533,352.413,347.094,0.0
53863.0,STARLINK-4788,PAYLOAD,2022-11-16 22:00:08,15.73203384,0.0003939,53.2173,327.4097,10.9386,231.7727,1.1328e-05,9.66e-06,0.0,0 STARLINK-4788,1 53863U 22114AX  22320.91675926  .00000966  00000-0  11328-4 0  9999,2 53863  53.2173 327.4097 0003939  10.9386 231.7727 15.73203384  1300,6727.886,91.533,352.401,347.1,0.0
53863.0,STARLINK-4788,PAYLOAD,2022-11-17 14:00:01,15.73257072,0.000437,53.2148,324.1097,0.9299,59.2527,-0.0005399,-0.00075948,0.0,0 STARLINK-4788,1 53863U 22114AX  22321.58334491 -.00075948  00000-0 -53990-3 0  9996,2 53863  53.2148 324.1097 0004370   0.9299  59.2527 15.73257072  1302,6727.732,91.53,352.537,346.657,0.0
53863.0,STARLINK-4788,PAYLOAD,2022-11-17 22:00:00,15.73206426,0.0004084,53.215,322.4582,2.3864,146.7645,-0.00013453,-0.00019476,0.0,0 STARLINK-4788,1 53863U 22114AX  22321.91667824 -.00019476  00000-0 -13453-3 0  9996,2 53863  53.2150 322.4582 0004084   2.3864 146.7645 15.73206426  1301,6727.877,91.533,352.49,346.994,0.0
